COMMENT,ORIGINATOR,NORAD_CAT_ID,OBJECT_NAME,OBJECT_TYPE,CLASSIFICATION_TYPE,INTLDES,EPOCH,EPOCH_MICROSECONDS,MEAN_MOTION,ECCENTRICITY,INCLINATION,RA_OF_ASC_NODE,ARG_OF_PERICENTER,MEAN_ANOMALY,EPHEMERIS_TYPE,ELEMENT_SET_NO,REV_AT_EPOCH,BSTAR,MEAN_MOTION_DOT,MEAN_MOTION_DDOT,FILE,TLE_LINE0,TLE_LINE1,TLE_LINE2,OBJECT_ID,OBJECT_NUMBER,SEMIMAJOR_AXIS,PERIOD,APOGEE,PERIGEE,DECAYED
"GENERATED VIA SPACETRACK.ORG API","18 SPCS","48899","SPACEBEE-110","PAYLOAD","U","21059W","2021-09-19 07:31:27","725376","15.12472688","0.0008999","97.5254","29.8864","324.2606","35.8021","0","999","1292","0.00012478","0.00002107","0","3120015","0 SPACEBEE-110","1 48899U 21059W   21262.31351534  .00002107  00000-0  12478-3 0  9998","2 48899  97.5254  29.8864 0008999 324.2606  35.8021 15.12472688 12924","2021-059W","48899","6906.799","95.208","534.879","522.449","0"
"GENERATED VIA SPACETRACK.ORG API","18 SPCS","48899","SPACEBEE-110","PAYLOAD","U","21059W","2021-09-19 21:48:52","642368","15.12476731","0.0008946","97.5257","30.4734","322.0217","38.0381","0","999","1301","0.00014775","0.00002507","0","3120378","0 SPACEBEE-110","1 48899U 21059W   21262.90894262  .00002507  00000-0  14775-3 0  9999","2 48899  97.5257  30.4734 0008946 322.0217  38.0381 15.12476731 13015","2021-059W","48899","6906.787","95.208","534.830","522.473","0"
"GENERATED VIA SPACETRACK.ORG API","18 SPCS","48899","SPACEBEE-110","PAYLOAD","U","21059W","2021-09-20 07:20:29","211360","15.12478817","0.0008928","97.5258","30.8648","320.4649","39.5929","0","999","1307","0.00015203","0.00002582","0","3121046","0 SPACEBEE-110","1 48899U 21059W   21263.30589365  .00002582  00000-0  15203-3 0  9999","2 48899  97.5258  30.8648 0008928 320.4649  39.5929 15.12478817 13072","2021-059W","48899","6906.780","95.208","534.812","522.479","0"
"GENERATED VIA SPACETRACK.ORG API","18 SPCS","48899","SPACEBEE-110","PAYLOAD","U","21059W","2021-09-20 07:20:29","211360","15.12478817","0.0008928","97.5258","30.8648","320.4649","39.5929","0","999","1307","0.00015203","0.00002582","0","3121163","0 SPACEBEE-110","1 48899U 21059W   21263.30589365  .00002582  00000-0  15203-3 0  9999","2 48899  97.5258  30.8648 0008928 320.4649  39.5929 15.12478817 13072","2021-059W","48899","6906.780","95.208","534.812","522.479","0"
"GENERATED VIA SPACETRACK.ORG API","18 SPCS","48899","SPACEBEE-110","PAYLOAD","U","21059W","2021-09-20 20:02:37","880160","15.12481761","0.0008882","97.526","31.3866","318.4202","41.6353","0","999","1315","0.00015512","0.00002636","0","3121356","0 SPACEBEE-110","1 48899U 21059W   21263.83516065  .00002636  00000-0  15512-3 0  9997","2 48899  97.5260  31.3866 0008882 318.4202  41.6353 15.12481761 13150","2021-059W","48899","6906.771","95.208","534.771","522.502","0"
"GENERATED VIA SPACETRACK.ORG API","18 SPCS","48899","SPACEBEE-110","PAYLOAD","U","21059W","2021-09-21 07:09:30","394080","15.12484422","0.0008857","97.5261","31.8433","316.6589","43.3945","0","999","1322","0.00015853","0.00002695","0","3121847","0 SPACEBEE-110","1 48899U 21059W   21264.29826845  .00002695  00000-0  15853-3 0  9991","2 48899  97.5261  31.8433 0008857 316.6589  43.3945 15.12484422 13227","2021-059W","48899","6906.763","95.208","534.746","522.511","0"
"GENERATED VIA SPACETRACK.ORG API","18 SPCS","48899","SPACEBEE-110","PAYLOAD","U","21059W","2021-09-21 15:05:50","727840","15.12485973","0.0008831","97.5263","32.1694","315.3572","44.6947","0","999","1327","0.00015494","0.00002633","0","3122164","0 SPACEBEE-110","1 48899U 21059W   21264.62905935  .00002633  00000-0  15494-3 0  9999","2 48899  97.5263  32.1694 0008831 315.3572  44.6947 15.12485973 13275","2021-059W","48899","6906.759","95.207","534.723","522.524","0"
"GENERATED VIA SPACETRACK.ORG API","18 SPCS","48899","SPACEBEE-110","PAYLOAD","U","21059W","2021-09-21 15:05:50","727840","15.12485973","0.0008831","97.5263","32.1694","315.3572","44.6947","0","999","1327","0.00015494","0.00002633","0","3122258","0 SPACEBEE-110","1 48899U 21059W   21264.62905935  .00002633  00000-0  15494-3 0  9999","2 48899  97.5263  32.1694 0008831 315.3572  44.6947 15.12485973 13275","2021-059W","48899","6906.759","95.207","534.723","522.524","0"
"GENERATED VIA SPACETRACK.ORG API","18 SPCS","48899","SPACEBEE-110","PAYLOAD","U","21059W","2021-09-22 06:58:31","224288","15.12491645","0.0008796","97.5264","32.8218","312.8155","47.2335","0","999","1337","0.00018657","0.00003184","0","3123417","0 SPACEBEE-110","1 48899U 21059W   21265.29063917  .00003184  00000-0  18657-3 0  9994","2 48899  97.5264  32.8218 0008796 312.8155  47.2335 15.12491645 13378","2021-059W","48899","6906.741","95.207","534.681","522.531","0"
"GENERATED VIA SPACETRACK.ORG API","18 SPCS","48899","SPACEBEE-110","PAYLOAD","U","21059W","2021-09-22 14:54:51","437088","15.12493422","0.0008769","97.5266","33.148","311.5761","48.4717","0","999","1342","0.00018461","0.0000315","0","3123736","0 SPACEBEE-110","1 48899U 21059W   21265.62142867  .00003150  00000-0  18461-3 0  9999","2 48899  97.5266  33.1480 0008769 311.5761  48.4717 15.12493422 13422","2021-059W","48899","6906.736","95.207","534.657","522.544","0"
"GENERATED VIA SPACETRACK.ORG API","18 SPCS","48899","SPACEBEE-110","PAYLOAD","U","21059W","2021-09-23 05:12:15","707808","15.12497246","0.0008743","97.5267","33.7351","309.2514","50.794","0","999","1351","0.00019026","0.00003249","0","3124322","0 SPACEBEE-110","1 48899U 21059W   21266.21684847  .00003249  00000-0  19026-3 0  9991","2 48899  97.5267  33.7351 0008743 309.2514  50.7940 15.12497246 13510","2021-059W","48899","6906.724","95.207","534.628","522.551","0"
"GENERATED VIA SPACETRACK.ORG API","18 SPCS","48899","SPACEBEE-110","PAYLOAD","U","21059W","2021-09-23 05:12:15","707808","15.12497246","0.0008743","97.5267","33.7351","309.2514","50.794","0","999","1351","0.00019026","0.00003249","0","3124856","0 SPACEBEE-110","1 48899U 21059W   21266.21684847  .00003249  00000-0  19026-3 0  9991","2 48899  97.5267  33.7351 0008743 309.2514  50.7940 15.12497246 13510","2021-059W","48899","6906.724","95.207","534.628","522.551","0"
"GENERATED VIA SPACETRACK.ORG API","18 SPCS","48899","SPACEBEE-110","PAYLOAD","U","21059W","2021-09-23 21:04:55","876800","15.12500591","0.0008716","97.5269","34.3876","306.6468","53.396","0","999","1361","0.00017848","0.00003044","0","3125337","0 SPACEBEE-110","1 48899U 21059W   21266.87842450  .00003044  00000-0  17848-3 0  9992","2 48899  97.5269  34.3876 0008716 306.6468  53.3960 15.12500591 13610","2021-059W","48899","6906.714","95.207","534.599","522.559","0"
"GENERATED VIA SPACETRACK.ORG API","18 SPCS","48899","SPACEBEE-110","PAYLOAD","U","21059W","2021-09-24 08:11:47","874048","15.12503233","0.0008698","97.5269","34.8442","304.8203","55.2209","0","999","1368","0.0001717","0.00002926","0","3126002","0 SPACEBEE-110","1 48899U 21059W   21267.34152632  .00002926  00000-0  17170-3 0  9997","2 48899  97.5269  34.8442 0008698 304.8203  55.2209 15.12503233 13680","2021-059W","48899","6906.706","95.206","534.578","522.564","0"
"GENERATED VIA SPACETRACK.ORG API","18 SPCS","48899","SPACEBEE-110","PAYLOAD","U","21059W","2021-09-24 14:32:51","879264","15.12505995","0.0008683","97.5269","35.1053","303.8056","56.2347","0","999","1372","0.00019736","0.00003374","0","3126757","0 SPACEBEE-110","1 48899U 21059W   21267.60615601  .00003374  00000-0  19736-3 0  9994","2 48899  97.5269  35.1053 0008683 303.8056  56.2347 15.12505995 13727","2021-059W","48899","6906.698","95.206","534.560","522.565","0"
"GENERATED VIA SPACETRACK.ORG API","18 SPCS","48899","SPACEBEE-110","PAYLOAD","U","21059W","2021-09-24 20:53:55","818816","15.12508131","0.0008677","97.5269","35.3662","302.7525","57.2869","0","999","1376","0.00020422","0.00003493","0","3126800","0 SPACEBEE-110","1 48899U 21059W   21267.87078494  .00003493  00000-0  20422-3 0  9992","2 48899  97.5269  35.3662 0008677 302.7525  57.2869 15.12508131 13766","2021-059W","48899","6906.691","95.206","534.549","522.563","0"
"GENERATED VIA SPACETRACK.ORG API","18 SPCS","48899","SPACEBEE-110","PAYLOAD","U","21059W","2021-09-25 03:14:59","767008","15.1250907","0.0008674","97.5269","35.6272","301.7064","58.3321","0","999","1380","0.00019488","0.00003331","0","3127665","0 SPACEBEE-110","1 48899U 21059W   21268.13541397  .00003331  00000-0  19488-3 0  9990","2 48899  97.5269  35.6272 0008674 301.7064  58.3321 15.12509070 13803","2021-059W","48899","6906.688","95.206","534.544","522.562","0"
"GENERATED VIA SPACETRACK.ORG API","18 SPCS","48899","SPACEBEE-110","PAYLOAD","U","21059W","2021-09-25 14:21:51","569856","15.12513101","0.0008656","97.5269","36.0839","299.9058","60.1312","0","999","1387","0.00021406","0.00003665","0","3128274","0 SPACEBEE-110","1 48899U 21059W   21268.59851354  .00003665  00000-0  21406-3 0  9990","2 48899  97.5269  36.0839 0008656 299.9058  60.1312 15.12513101 13876","2021-059W","48899","6906.676","95.206","534.519","522.562","0"
"GENERATED VIA SPACETRACK.ORG API","18 SPCS","48899","SPACEBEE-110","PAYLOAD","U","21059W","2021-09-26 06:14:31","180704","15.12517322","0.0008645","97.5269","36.7363","297.2542","62.7808","0","999","1397","0.00021744","0.00003725","0","3129224","0 SPACEBEE-110","1 48899U 21059W   21269.26008311  .00003725  00000-0  21744-3 0  9994","2 48899  97.5269  36.7363 0008645 297.2542  62.7808 15.12517322 13970","2021-059W","48899","6906.663","95.206","534.499","522.557","0"
"GENERATED VIA SPACETRACK.ORG API","18 SPCS","48899","SPACEBEE-110","PAYLOAD","U","21059W","2021-09-26 07:49:47","149824","15.12517276","0.0008635","97.5269","36.8016","297.0216","63.0133","0","999","1398","0.0002103","0.000036","0","3129258","0 SPACEBEE-110","1 48899U 21059W   21269.32624016  .00003600  00000-0  21030-3 0  9997","2 48899  97.5269  36.8016 0008635 297.0216  63.0133 15.12517276 13985","2021-059W","48899","6906.663","95.206","534.492","522.564","0"
